[{"OBJECT_NAME":"HJ-2A","OBJECT_ID":"2020-067A","EPOCH":"2026-03-09T22:54:37.031328","MEAN_MOTION":14.76559818,"ECCENTRICITY":0.00025704,"INCLINATION":97.8873,"RA_OF_ASC_NODE":149.6532,"ARG_OF_PERICENTER":194.0861,"MEAN_ANOMALY":166.0278,"EPHEMERIS_TYPE":0,"CLASSIFICATION_TYPE":"U","NORAD_CAT_ID":46478,"ELEMENT_SET_NO":999,"REV_AT_EPOCH":29361,"BSTAR":0.00012804668,"MEAN_MOTION_DOT":8.43e-6,"MEAN_MOTION_DDOT":0},{"OBJECT_NAME":"CZ-4B DEB","OBJECT_ID":"1999-057FJ","EPOCH":"2026-03-09T05:48:40.255776","MEAN_MOTION":14.80940909,"ECCENTRICITY":0.00504445,"INCLINATION":98.2659,"RA_OF_ASC_NODE":157.034,"ARG_OF_PERICENTER":47.8855,"MEAN_ANOMALY":11.6615,"EPHEMERIS_TYPE":0,"CLASSIFICATION_TYPE":"U","NORAD_CAT_ID":26272,"ELEMENT_SET_NO":999,"REV_AT_EPOCH":37406,"BSTAR":0.0011714094,"MEAN_MOTION_DOT":9.212e-5,"MEAN_MOTION_DDOT":0}]
